[{"OBJECT_NAME":"STARLINK-31801","OBJECT_ID":"2024-082S","EPOCH":"2026-03-08T07:06:19.190880","MEAN_MOTION":15.27581996,"ECCENTRICITY":0.0001144,"INCLINATION":42.9989,"RA_OF_ASC_NODE":148.1156,"ARG_OF_PERICENTER":265.2657,"MEAN_ANOMALY":94.8064,"EPHEMERIS_TYPE":0,"CLASSIFICATION_TYPE":"U","NORAD_CAT_ID":59647,"ELEMENT_SET_NO":999,"REV_AT_EPOCH":10464,"BSTAR":-1.7679e-5,"MEAN_MOTION_DOT":-7.48e-6,"MEAN_MOTION_DDOT":0},{"OBJECT_NAME":"STARLINK-31787","OBJECT_ID":"2024-082V","EPOCH":"2026-03-08T12:34:49.420704","MEAN_MOTION":15.27588259,"ECCENTRICITY":0.0001864,"INCLINATION":43.0032,"RA_OF_ASC_NODE":146.3966,"ARG_OF_PERICENTER":286.8453,"MEAN_ANOMALY":73.2194,"EPHEMERIS_TYPE":0,"CLASSIFICATION_TYPE":"U","NORAD_CAT_ID":59650,"ELEMENT_SET_NO":999,"REV_AT_EPOCH":10483,"BSTAR":3.1507e-5,"MEAN_MOTION_DOT":6.05e-6,"MEAN_MOTION_DDOT":0},{"OBJECT_NAME":"STARLINK-31277","OBJECT_ID":"2024-082W","EPOCH":"2026-03-08T06:29:18.099168","MEAN_MOTION":15.27578023,"ECCENTRICITY":6.22e-5,"INCLINATION":42.9988,"RA_OF_ASC_NODE":147.9291,"ARG_OF_PERICENTER":228.3204,"MEAN_ANOMALY":131.7595,"EPHEMERIS_TYPE":0,"CLASSIFICATION_TYPE":"U","NORAD_CAT_ID":59651,"ELEMENT_SET_NO":999,"REV_AT_EPOCH":10479,"BSTAR":-1.3644e-5,"MEAN_MOTION_DOT":-6.37e-6,"MEAN_MOTION_DDOT":0},{"OBJECT_NAME":"STARLINK-31799","OBJECT_ID":"2024-082X","EPOCH":"2026-03-08T05:48:50.502816","MEAN_MOTION":15.27571474,"ECCENTRICITY":0.0001634,"INCLINATION":43.0056,"RA_OF_ASC_NODE":137.3155,"ARG_OF_PERICENTER":294.8096,"MEAN_ANOMALY":65.2586,"EPHEMERIS_TYPE":0,"CLASSIFICATION_TYPE":"U","NORAD_CAT_ID":59652,"ELEMENT_SET_NO":999,"REV_AT_EPOCH":10476,"BSTAR":3.3815e-6,"MEAN_MOTION_DOT":-1.69e-6,"MEAN_MOTION_DDOT":0},{"OBJECT_NAME":"STARLINK-31764","OBJECT_ID":"2024-082Y","EPOCH":"2026-03-08T12:14:27.799008","MEAN_MOTION":15.27583063,"ECCENTRICITY":0.0001158,"INCLINATION":42.9945,"RA_OF_ASC_NODE":146.2835,"ARG_OF_PERICENTER":145.7229,"MEAN_ANOMALY":214.3698,"EPHEMERIS_TYPE":0,"CLASSIFICATION_TYPE":"U","NORAD_CAT_ID":59653,"ELEMENT_SET_NO":999,"REV_AT_EPOCH":10483,"BSTAR":0.00011435,"MEAN_MOTION_DOT":2.886e-5,"MEAN_MOTION_DDOT":0},{"OBJECT_NAME":"STARLINK-31589","OBJECT_ID":"2024-084A","EPOCH":"2026-03-08T07:21:59.111424","MEAN_MOTION":15.27591947,"ECCENTRICITY":0.0001021,"INCLINATION":43.0016,"RA_OF_ASC_NODE":49.4413,"ARG_OF_PERICENTER":267.3151,"MEAN_ANOMALY":92.7584,"EPHEMERIS_TYPE":0,"CLASSIFICATION_TYPE":"U","NORAD_CAT_ID":59654,"ELEMENT_SET_NO":999,"REV_AT_EPOCH":10418,"BSTAR":-0.00017977,"MEAN_MOTION_DOT":-5.207e-5,"MEAN_MOTION_DDOT":0},{"OBJECT_NAME":"STARLINK-31665","OBJECT_ID":"2024-084B","EPOCH":"2026-03-08T07:33:46.116576","MEAN_MOTION":15.27593035,"ECCENTRICITY":0.0001158,"INCLINATION":43.0034,"RA_OF_ASC_NODE":46.0447,"ARG_OF_PERICENTER":278.9548,"MEAN_ANOMALY":81.1172,"EPHEMERIS_TYPE":0,"CLASSIFICATION_TYPE":"U","NORAD_CAT_ID":59655,"ELEMENT_SET_NO":999,"REV_AT_EPOCH":10420,"BSTAR":0.00017732,"MEAN_MOTION_DOT":4.622e-5,"MEAN_MOTION_DDOT":0},{"OBJECT_NAME":"STARLINK-31912","OBJECT_ID":"2024-084C","EPOCH":"2026-03-08T08:02:41.812224","MEAN_MOTION":15.27571928,"ECCENTRICITY":0.0001354,"INCLINATION":43.0058,"RA_OF_ASC_NODE":49.6527,"ARG_OF_PERICENTER":263.42,"MEAN_ANOMALY":96.6498,"EPHEMERIS_TYPE":0,"CLASSIFICATION_TYPE":"U","NORAD_CAT_ID":59656,"ELEMENT_SET_NO":999,"REV_AT_EPOCH":10416,"BSTAR":-2.0288e-5,"MEAN_MOTION_DOT":-8.2e-6,"MEAN_MOTION_DDOT":0},{"OBJECT_NAME":"STARLINK-31904","OBJECT_ID":"2024-084D","EPOCH":"2026-03-08T06:13:43.023072","MEAN_MOTION":15.27584185,"ECCENTRICITY":1.65e-5,"INCLINATION":43,"RA_OF_ASC_NODE":49.9424,"ARG_OF_PERICENTER":265.0068,"MEAN_ANOMALY":95.0765,"EPHEMERIS_TYPE":0,"CLASSIFICATION_TYPE":"U","NORAD_CAT_ID":59657,"ELEMENT_SET_NO":999,"REV_AT_EPOCH":10415,"BSTAR":6.6564e-5,"MEAN_MOTION_DOT":1.571e-5,"MEAN_MOTION_DDOT":0},{"OBJECT_NAME":"STARLINK-31858","OBJECT_ID":"2024-084E","EPOCH":"2026-03-08T07:10:53.594688","MEAN_MOTION":15.27568886,"ECCENTRICITY":0.00011,"INCLINATION":43.002,"RA_OF_ASC_NODE":49.3796,"ARG_OF_PERICENTER":264.9362,"MEAN_ANOMALY":95.1364,"EPHEMERIS_TYPE":0,"CLASSIFICATION_TYPE":"U","NORAD_CAT_ID":59658,"ELEMENT_SET_NO":999,"REV_AT_EPOCH":10416,"BSTAR":-4.5452e-5,"MEAN_MOTION_DOT":-1.512e-5,"MEAN_MOTION_DDOT":0},{"OBJECT_NAME":"STARLINK-31881","OBJECT_ID":"2024-084F","EPOCH":"2026-03-08T08:34:36.215904","MEAN_MOTION":15.27598536,"ECCENTRICITY":0.0001287,"INCLINATION":43.0028,"RA_OF_ASC_NODE":45.4952,"ARG_OF_PERICENTER":277.5747,"MEAN_ANOMALY":82.4958,"EPHEMERIS_TYPE":0,"CLASSIFICATION_TYPE":"U","NORAD_CAT_ID":59659,"ELEMENT_SET_NO":999,"REV_AT_EPOCH":10421,"BSTAR":0.00032009,"MEAN_MOTION_DOT":8.561e-5,"MEAN_MOTION_DDOT":0},{"OBJECT_NAME":"STARLINK-31885","OBJECT_ID":"2024-084G","EPOCH":"2026-03-08T06:10:42.340800","MEAN_MOTION":15.27592168,"ECCENTRICITY":0.000109,"INCLINATION":43.0037,"RA_OF_ASC_NODE":46.4657,"ARG_OF_PERICENTER":263.7113,"MEAN_ANOMALY":96.3615,"EPHEMERIS_TYPE":0,"CLASSIFICATION_TYPE":"U","NORAD_CAT_ID":59660,"ELEMENT_SET_NO":999,"REV_AT_EPOCH":10419,"BSTAR":0.00010967,"MEAN_MOTION_DOT":2.758e-5,"MEAN_MOTION_DDOT":0},{"OBJECT_NAME":"STARLINK-31880","OBJECT_ID":"2024-084H","EPOCH":"2026-03-08T07:24:33.060672","MEAN_MOTION":15.27564236,"ECCENTRICITY":9.54e-5,"INCLINATION":43.0026,"RA_OF_ASC_NODE":45.9927,"ARG_OF_PERICENTER":276.8164,"MEAN_ANOMALY":83.2579,"EPHEMERIS_TYPE":0,"CLASSIFICATION_TYPE":"U","NORAD_CAT_ID":59661,"ELEMENT_SET_NO":999,"REV_AT_EPOCH":10420,"BSTAR":-6.7883e-5,"MEAN_MOTION_DOT":-2.128e-5,"MEAN_MOTION_DDOT":0},{"OBJECT_NAME":"STARLINK-31886","OBJECT_ID":"2024-084J","EPOCH":"2026-03-08T07:57:07.839936","MEAN_MOTION":15.27587865,"ECCENTRICITY":0.000237,"INCLINATION":43.0112,"RA_OF_ASC_NODE":49.6265,"ARG_OF_PERICENTER":290.3971,"MEAN_ANOMALY":69.6626,"EPHEMERIS_TYPE":0,"CLASSIFICATION_TYPE":"U","NORAD_CAT_ID":59662,"ELEMENT_SET_NO":999,"REV_AT_EPOCH":10416,"BSTAR":1.6152e-6,"MEAN_MOTION_DOT":-2.18e-6,"MEAN_MOTION_DDOT":0},{"OBJECT_NAME":"STARLINK-31909","OBJECT_ID":"2024-084K","EPOCH":"2026-03-08T08:30:10.413216","MEAN_MOTION":15.27523564,"ECCENTRICITY":7.45e-5,"INCLINATION":43.002,"RA_OF_ASC_NODE":48.9722,"ARG_OF_PERICENTER":252.3814,"MEAN_ANOMALY":107.6956,"EPHEMERIS_TYPE":0,"CLASSIFICATION_TYPE":"U","NORAD_CAT_ID":59663,"ELEMENT_SET_NO":999,"REV_AT_EPOCH":10417,"BSTAR":0.00081387,"MEAN_MOTION_DOT":0.00022163,"MEAN_MOTION_DDOT":0},{"OBJECT_NAME":"STARLINK-31910","OBJECT_ID":"2024-084L","EPOCH":"2026-03-08T08:50:34.213056","MEAN_MOTION":15.27586725,"ECCENTRICITY":0.0001054,"INCLINATION":43.0021,"RA_OF_ASC_NODE":49.0334,"ARG_OF_PERICENTER":267.2788,"MEAN_ANOMALY":92.7943,"EPHEMERIS_TYPE":0,"CLASSIFICATION_TYPE":"U","NORAD_CAT_ID":59664,"ELEMENT_SET_NO":999,"REV_AT_EPOCH":10417,"BSTAR":7.1995e-5,"MEAN_MOTION_DOT":1.72e-5,"MEAN_MOTION_DDOT":0},{"OBJECT_NAME":"STARLINK-31902","OBJECT_ID":"2024-084N","EPOCH":"2026-03-08T08:08:13.729920","MEAN_MOTION":15.27586075,"ECCENTRICITY":9.58e-5,"INCLINATION":43.0036,"RA_OF_ASC_NODE":49.6748,"ARG_OF_PERICENTER":233.0854,"MEAN_ANOMALY":126.991,"EPHEMERIS_TYPE":0,"CLASSIFICATION_TYPE":"U","NORAD_CAT_ID":59666,"ELEMENT_SET_NO":999,"REV_AT_EPOCH":10416,"BSTAR":0.00010053,"MEAN_MOTION_DOT":2.506e-5,"MEAN_MOTION_DDOT":0}]
