STARLINK-31801          
1 59647U 24082S   26067.29605545 -.00000748  00000+0 -17679-4 0  9998
2 59647  42.9989 148.1156 0001144 265.2657  94.8064 15.27581996104642
STARLINK-31787          
1 59650U 24082V   26067.52418311  .00000605  00000+0  31507-4 0  9997
2 59650  43.0032 146.3966 0001864 286.8453  73.2194 15.27588259104833
STARLINK-31277          
1 59651U 24082W   26067.27034837 -.00000637  00000+0 -13644-4 0  9996
2 59651  42.9988 147.9291 0000622 228.3204 131.7595 15.27578023104794
STARLINK-31799          
1 59652U 24082X   26067.24225119 -.00000169  00000+0  33815-5 0  9991
2 59652  43.0056 137.3155 0001634 294.8096  65.2586 15.27571474104767
STARLINK-31764          
1 59653U 24082Y   26067.51004397  .00002886  00000+0  11435-3 0  9994
2 59653  42.9945 146.2835 0001158 145.7229 214.3698 15.27583063104836
STARLINK-31589          
1 59654U 24084A   26067.30693416 -.00005207  00000+0 -17977-3 0  9999
2 59654  43.0016  49.4413 0001021 267.3151  92.7584 15.27591947104188
STARLINK-31665          
1 59655U 24084B   26067.31511709  .00004622  00000+0  17732-3 0  9992
2 59655  43.0034  46.0447 0001158 278.9548  81.1172 15.27593035104206
STARLINK-31912          
1 59656U 24084C   26067.33520616 -.00000820  00000+0 -20288-4 0  9991
2 59656  43.0058  49.6527 0001354 263.4200  96.6498 15.27571928104167
STARLINK-31904          
1 59657U 24084D   26067.25952573  .00001571  00000+0  66564-4 0  9993
2 59657  43.0000  49.9424 0000165 265.0068  95.0765 15.27584185104151
STARLINK-31858          
1 59658U 24084E   26067.29923142 -.00001512  00000+0 -45452-4 0  9998
2 59658  43.0020  49.3796 0001100 264.9362  95.1364 15.27568886104162
STARLINK-31881          
1 59659U 24084F   26067.35736361  .00008561  00000+0  32009-3 0  9993
2 59659  43.0028  45.4952 0001287 277.5747  82.4958 15.27598536104214
STARLINK-31885          
1 59660U 24084G   26067.25743450  .00002758  00000+0  10967-3 0  9992
2 59660  43.0037  46.4657 0001090 263.7113  96.3615 15.27592168104191
STARLINK-31880          
1 59661U 24084H   26067.30871598 -.00002128  00000+0 -67883-4 0  9997
2 59661  43.0026  45.9927 0000954 276.8164  83.2579 15.27564236104204
STARLINK-31886          
1 59662U 24084J   26067.33134074 -.00000218  00000+0  16152-5 0  9993
2 59662  43.0112  49.6265 0002370 290.3971  69.6626 15.27587865104167
STARLINK-31909          
1 59663U 24084K   26067.35428719  .00022163  00000+0  81387-3 0  9990
2 59663  43.0020  48.9722 0000745 252.3814 107.6956 15.27523564104170
STARLINK-31910          
1 59664U 24084L   26067.36845154  .00001720  00000+0  71995-4 0  9999
2 59664  43.0021  49.0334 0001054 267.2788  92.7943 15.27586725104170
STARLINK-31902          
1 59666U 24084N   26067.33904780  .00002506  00000+0  10053-3 0  9999
2 59666  43.0036  49.6748 0000958 233.0854 126.9910 15.27586075104161
